330P/Catalina,e,15.7059,293.0849,188.8672,6.623016,0.0578256,0.54868851,129.1513,10/07.0/2022,2000,g 12.0,4.0
# From MPEC 2022-C56
331P/Gibbs,e,9.7389,216.7535,184.4273,3.005294,0.1891793,0.04122873,138.8582,10/07.0/2022,2000,g 12.0,4.0
# From MPEC 2016-K18
332P/Ikeya-Murakami,e,9.3801,3.7857,152.3099,3.087968,0.1816331,0.48932703,75.3153,10/07.0/2022,2000,g 18.0,4.0
# From MPEC 2016-EI8
332P-B/Ikeya-Murakami,e,9.3805,3.8028,152.3711,3.082329,0.1821317,0.48970701,359.9699,03/17.0/2016,2000,g 19.0,4.0
# From MPEC 2016-K18
332P-C/Ikeya-Murakami,e,9.3791,3.7862,152.3012,3.087934,0.1816361,0.48933250,75.3307,10/07.0/2022,2000,g 16.5,4.0
# From MPEC 2016-ED0
332P-D/Ikeya-Murakami,e,9.3761,3.7923,152.4393,3.081138,0.1822373,0.48977814,359.9486,03/17.0/2016,2000,g 19.0,4.0
# From MPEC 2016-ED0
332P-E/Ikeya-Murakami,e,9.3774,3.8228,152.2825,3.079877,0.1823493,0.48922008,359.9889,03/17.0/2016,2000,g 21.0,4.0
# From MPEC 2016-ED0
332P-F/Ikeya-Murakami,e,9.5293,3.4757,152.8203,3.163214,0.1751908,0.49918860,359.8501,03/17.0/2016,2000,g 21.0,4.0
# From MPEC 2016-ED0
332P-G/Ikeya-Murakami,e,9.2523,3.6955,154.4000,3.050519,0.1849880,0.49200362,359.9006,03/19.0/2016,2000,g 19.0,4.0
# From MPC100285
332P-H/Ikeya-Murakami,e,9.3797,3.7859,152.3018,3.088118,0.1816198,0.48936779,75.2589,10/07.0/2022,2000,g 19.0,4.0
# From MPEC 2016-ED0
332P-I/Ikeya-Murakami,e,9.3791,3.8048,152.3297,3.081767,0.1821815,0.48955490,359.9360,03/17.0/2016,2000,g 20.5,2.0
# From MPEC 2016-EI8
332P-J/Ikeya-Murakami,e,9.4296,3.6729,152.7712,3.115165,0.1792596,0.49429435,359.8613,03/17.0/2016,2000,g 20.5,2.0
# From MPEC 2020-L06
333P/LINEAR,e,132.0028,115.6538,25.9843,4.221132,0.1136477,0.73649369,270.8800,10/07.0/2022,2000,g 15.0,4.0
# From MPC115888
334P/NEAT,e,20.3999,90.5980,90.1032,6.836866,0.0551339,0.35058157,107.5598,10/07.0/2022,2000,g 10.5,4.0
# From MPEC 2021-U31
335P/Gibbs,e,7.2932,330.8473,162.3076,3.578256,0.1456119,0.54619209,8.1528,10/07.0/2022,2000,g 17.0,4.0
# From MPC105244
336P/McNaught,e,17.8279,298.2621,308.7130,5.035652,0.0872209,0.44408043,181.0009,10/07.0/2022,2000,g 13.5,4.0
# From MPEC 2022-QD9
337P/WISE,e,15.3709,106.0601,161.0425,3.285863,0.1654741,0.49660481,16.1873,10/07.0/2022,2000,g 17.0,4.0
# From MPEC 2022-K19
338P/McNaught,e,25.3865,9.7999,4.4768,3.894297,0.1282509,0.41206925,274.6118,10/07.0/2022,2000,g 12.0,4.0
# From MPC101101
339P/Gibbs,e,5.7332,172.7229,27.4755,3.699231,0.1385278,0.63553739,314.5654,10/07.0/2022,2000,g 17.0,4.0
# From MPC133426
340P/Boattini,e,2.0781,291.6713,35.9903,4.250238,0.1124823,0.28079712,241.1699,10/07.0/2022,2000,g 14.3,4.0
# From MPEC 2022-K19
341P/Gibbs,e,3.7972,29.9679,312.2520,4.291000,0.1108833,0.41575267,257.0846,10/07.0/2022,2000,g 12.5,4.0
# From MPC101101
342P/SOHO,e,11.6668,27.7114,73.2554,3.041481,0.1858131,0.98277687,0.0000,10/19.2855/2021,2000,g  9.0,4.0
# From MPEC 2022-K19
343P/NEAT-LONEOS,e,5.5898,257.1250,137.4603,5.458168,0.0772919,0.58506287,160.4115,10/07.0/2022,2000,g 14.0,4.0
# From MPC109148
344P/Read,e,3.4942,273.1273,140.4265,4.861744,0.0919424,0.42304071,198.9476,10/07.0/2022,2000,g 13.0,4.0
# From MPEC 2022-K19
345P/LINEAR,e,2.7275,154.5150,196.5518,4.035310,0.1215874,0.22150054,275.7415,10/07.0/2022,2000,g 12.0,4.0
# From MPEC 2022-K19
346P/Catalina,e,22.1998,102.4539,335.9566,4.473614,0.1041637,0.50310431,214.7075,10/07.0/2022,2000,g 14.0,4.0
# From MPEC 2022-K19
347P/PANSTARRS,e,11.7540,261.0209,98.4254,3.604257,0.1440391,0.38610163,318.7949,10/07.0/2022,2000,g 15.0,4.0
# From MPEC 2022-ED3
348P/PANSTARRS,e,17.7386,312.9411,135.6738,3.151370,0.1761793,0.30701003,41.6549,10/07.0/2022,2000,g 14.0,4.0
# From MPEC 2022-K19
349P/Lemmon,e,5.4904,331.7520,255.9224,3.575764,0.1457642,0.29843532,272.7538,10/07.0/2022,2000,g 14.0,4.0
# From MPC111775
350P/McNaught,e,7.3631,65.2955,139.6963,4.085394,0.1193584,0.09309893,209.9503,10/07.0/2022,2000,g 14.0,4.0
# From MPC105244
351P/Wiegert-PANSTARRS,e,12.7801,283.4286,352.6800,4.438937,0.1053867,0.29521137,264.9870,10/07.0/2022,2000,g 12.5,4.0
# From MPC110086
352P/Skiff,e,21.0128,28.0075,309.3318,6.644162,0.0575498,0.61793853,111.1901,10/07.0/2022,2000,g 11.5,4.0
# From MPEC 2020-AA5
353P/McNaught,e,28.4134,121.5347,230.4587,4.170689,0.1157157,0.47038511,202.3489,10/07.0/2022,2000,g 14.5,4.0
# From MPC105545
354P/LINEAR,e,5.2540,320.1303,132.7301,2.290368,0.2843453,0.12534167,254.2322,10/07.0/2022,2000,g 15.5,4.0
# From MPEC 2020-AA5
355P/LINEAR-NEAT,e,11.0462,51.4318,336.3002,3.469874,0.1524873,0.50781011,277.2744,10/07.0/2022,2000,g 15.5,2.0
# From MPEC 2022-F14
356P/WISE,e,9.6380,160.7969,226.0328,4.157246,0.1162774,0.35580775,203.7766,10/07.0/2022,2000,g 14.0,4.0
# From MPC114609
357P/Hill,e,6.3157,44.5582,1.3969,4.458210,0.1047040,0.43565182,166.5361,10/07.0/2022,2000,g 15.5,4.0
# From MPEC 2020-HN5
358P/PANSTARRS,e,11.0604,85.7027,299.7790,3.146577,0.1765821,0.23893079,289.3330,10/07.0/2022,2000,g 18.0,4.0
# From MPC110086
359P/LONEOS,e,10.2664,149.7538,200.2540,4.640053,0.0986097,0.32417894,184.4782,10/07.0/2022,2000,g 13.5,4.0
# From MPC108599
360P/WISE,e,24.1120,2.1922,354.1872,3.700303,0.1384676,0.49928901,259.2578,10/07.0/2022,2000,g 19.5,6.0
# From MPC114609
361P/Spacewatch,e,13.9021,203.2568,219.0015,4.935799,0.0898810,0.43889780,139.9128,10/07.0/2022,2000,g 12.0,4.0
# From MPEC 2017-V13
362P/,e,15.5568,192.5460,53.6257,3.971426,0.1245330,0.27880321,278.7238,10/07.0/2022,2000,g 12.9,2.0
# From MPC114609
363P/Lemmon,e,5.4068,146.8827,340.9877,3.565919,0.1463683,0.52028177,247.5737,10/07.0/2022,2000,g 17.5,4.0
# From MPEC 2022-K19
364P/PANSTARRS,e,12.1349,46.1582,212.0140,2.880114,0.2016460,0.72182401,315.8366,10/07.0/2022,2000,g 17.0,2.0
# From MPC111775
365P/PANSTARRS,e,9.8364,86.3703,67.5988,3.160594,0.1754087,0.58138561,295.5756,10/07.0/2022,2000,g 17.0,4.0
# From MPC114610
366P/Spacewatch,e,8.8571,70.7630,153.0574,3.496770,0.1507313,0.34802701,232.2626,10/07.0/2022,2000,g 15.0,4.0
# From MPC112395
367P/Catalina,e,8.4597,58.7197,172.8185,3.507432,0.1500445,0.27977269,235.7264,10/07.0/2022,2000,g 17.5,2.0
# From MPC114610
368P/NEAT,e,15.4816,257.8647,118.8943,5.529075,0.0758098,0.62674279,112.3877,10/07.0/2022,2000,g 14.0,4.0
# From MPC114610
369P/Hill,e,10.3227,47.2908,13.1539,4.381929,0.1074499,0.55525001,156.0000,10/07.0/2022,2000,g 15.0,4.0
# From MPEC 2021-F20
370P/NEAT,e,19.4217,55.0757,356.6969,6.434415,0.0603866,0.61524685,95.3721,10/07.0/2022,2000,g 13.0,4.0
# From MPC114610
371P/LINEAR-Skiff,e,17.3835,67.2513,308.5402,4.180667,0.1153017,0.47707701,168.5649,10/07.0/2022,2000,g 16.0,4.0
# From MPEC 2020-K19
372P/McNaught,e,9.5077,325.8179,27.5826,4.507460,0.1029926,0.15258514,148.7171,10/07.0/2022,2000,g 13.5,4.0
# From MPEC 2021-F20
373P/Rinner,e,13.7687,231.9591,221.0134,3.801259,0.1329881,0.39274733,169.8355,10/07.0/2022,2000,g 14.5,4.0
# From MPC114610
374P/Larson,e,10.7669,7.9151,51.4467,4.971722,0.0889086,0.46324437,121.3066,10/07.0/2022,2000,g 14.0,4.0
# From MPEC 2021-F20
375P/Hill,e,17.3615,359.9498,119.3764,5.550869,0.0753638,0.65882694,104.4654,10/07.0/2022,2000,g 16.0,4.0
# From MPEC 2022-K19
376P/LONEOS,e,1.1748,313.8979,284.7552,5.775976,0.0710013,0.51633464,78.8208,10/07.0/2022,2000,g 12.5,4.0
# From MPEC 2022-N37
377P/Scotti,e,9.0242,226.0667,355.0379,6.705001,0.0567683,0.25153938,46.3954,10/07.0/2022,2000,g  9.5,4.0
# From MPEC 2022-TA0
378P/McNaught,e,19.0539,94.1269,193.6639,6.334587,0.0618197,0.46782228,44.5253,10/07.0/2022,2000,g 12.0,4.0
# From MPC115889
379P/Spacewatch,e,12.4524,183.8391,30.5732,3.509523,0.1499105,0.34338646,174.1041,10/07.0/2022,2000,g 15.0,4.0
# From MPEC 2022-K19
380P/PANSTARRS,e,8.1541,131.9284,86.3776,4.429176,0.1057352,0.34152301,130.0223,10/07.0/2022,2000,g 14.6,4.0
# From MPEC 2021-J28
381P/LINEAR-Spacewatch,e,28.3787,173.7584,173.2725,7.134765,0.0517171,0.68186270,57.1892,10/07.0/2022,2000,g 17.5,2.0
# From MPEC 2022-TA0
382P/Larson,e,8.4572,173.7371,167.2639,6.272315,0.0627426,0.29791419,16.5051,10/07.0/2022,2000,g  8.0,4.0
# From MPEC 2022-OB6
383P/Christensen,e,12.3252,207.8261,133.7675,3.546716,0.1475586,0.59946731,158.8395,10/07.0/2022,2000,g 18.0,4.0
# From MPEC 2022-OB6
384P/Kowalski,e,7.2842,354.2283,37.6308,2.900119,0.1995631,0.61611467,217.6866,10/07.0/2022,2000,g 19.5,4.0
# From MPEC 2021-F20
385P/Hill,e,16.8321,357.0605,44.3352,4.288461,0.1109818,0.40196878,124.0217,10/07.0/2022,2000,g 13.0,4.0
# From MPEC 2021-L04
386P/PANSTARRS,e,15.2308,134.9386,353.1296,4.053373,0.1207756,0.41631771,94.0789,10/07.0/2022,2000,g 14.5,4.0
# From MPEC 2021-J28
387P/Boattini,e,8.9281,259.2625,162.7907,4.797072,0.0938080,0.73665194,105.6496,10/07.0/2022,2000,g 15.0,4.0
# From MPEC 2021-S45
388P/Gibbs,e,23.8858,37.0455,42.3013,5.241425,0.0821353,0.61855695,96.1774,10/07.0/2022,2000,g 13.0,4.0
# From MPEC 2022-OB6
389P/Siding Spring,e,160.0828,218.8742,249.3855,5.632660,0.0737282,0.70437425,74.6542,10/07.0/2022,2000,g 16.0,4.0
# From MPEC 2022-OB6
390P/Gibbs,e,18.5594,152.2727,232.3822,5.808974,0.0703971,0.70741854,65.3560,10/07.0/2022,2000,g 12.0,4.0
# From MPEC 2021-F20
391P/Kowalski,e,21.2695,124.7382,187.2990,4.683345,0.0972456,0.11994637,161.3746,10/07.0/2022,2000,g  8.0,4.0
# From MPEC 2021-J28
392P/LINEAR,e,4.9320,24.8866,71.8848,6.141128,0.0647637,0.68307438,59.5201,10/07.0/2022,2000,g 14.5,4.0
# From MPEC 2021-BE3
393P/Spacewatch-Hill,e,16.7876,36.3962,328.7267,4.791557,0.0939700,0.12064048,100.8846,10/07.0/2022,2000,g 11.0,4.0
# From MPEC 2020-KB7
394P/PANSTARRS,e,8.5294,98.1255,54.4749,4.330597,0.1093660,0.36743560,113.9957,10/07.0/2022,2000,g 16.0,2.4
# From MPEC 2022-TA0
395P/Catalina-NEAT,e,3.2902,223.1166,90.6113,6.639760,0.0576070,0.38768967,16.0490,10/07.0/2022,2000,g 10.0,4.0
# From MPEC 2020-KB7
396P/,e,5.4367,136.6557,8.4390,6.807903,0.0554861,0.41571869,63.0553,10/07.0/2022,2000,g 12.0,4.0
# From MPEC 2022-OB6
397P/Lemmon,e,10.9298,8.1947,14.5083,3.829625,0.1315133,0.40529222,110.3733,10/07.0/2022,2000,g 12.0,4.0
# From MPEC 2021-L04
